{
  "norad_id": 65949,
  "name": "KUIPER-00117",
  "history": [
    {
      "epoch": "2026-03-28T19:25:00.561792",
      "apogee_km": 630.0749114536065,
      "perigee_km": 628.926639927683,
      "latitude_deg": -8.233060201813283,
      "longitude_deg": 132.56729087978601,
      "semi_major_axis_km": 7007.637775690645,
      "eccentricity": 8.193e-05,
      "inclination_deg": 51.8974,
      "raan_deg": 273.5491,
      "arg_perigee_deg": 93.0114,
      "mean_anomaly_deg": 267.0942,
      "mean_motion_rev_day": 14.79944041
    }
  ]
}